[{"OBJECT_NAME":"STARLINK-11303 [DTC]","OBJECT_ID":"2024-220J","EPOCH":"2026-03-09T22:21:13.906080","MEAN_MOTION":15.7086617,"ECCENTRICITY":0.00012327,"INCLINATION":42.9997,"RA_OF_ASC_NODE":41.3967,"ARG_OF_PERICENTER":269.8713,"MEAN_ANOMALY":90.2014,"EPHEMERIS_TYPE":0,"CLASSIFICATION_TYPE":"U","NORAD_CAT_ID":62096,"ELEMENT_SET_NO":999,"REV_AT_EPOCH":7509,"BSTAR":0.0015776744,"MEAN_MOTION_DOT":0.00207346,"MEAN_MOTION_DDOT":0},{"OBJECT_NAME":"FENGYUN 1C DEB","OBJECT_ID":"1999-025BHM","EPOCH":"2026-03-07T15:41:41.908992","MEAN_MOTION":15.52424712,"ECCENTRICITY":0.00874412,"INCLINATION":97.8053,"RA_OF_ASC_NODE":37.5391,"ARG_OF_PERICENTER":68.6008,"MEAN_ANOMALY":292.4545,"EPHEMERIS_TYPE":0,"CLASSIFICATION_TYPE":"U","NORAD_CAT_ID":31159,"ELEMENT_SET_NO":999,"REV_AT_EPOCH":844,"BSTAR":0.0020496514,"MEAN_MOTION_DOT":0.00149592,"MEAN_MOTION_DDOT":0}]
